[{"OBJECT_NAME":"QIANFAN-69","OBJECT_ID":"2025-016Q","EPOCH":"2026-03-07T13:47:49.422912","MEAN_MOTION":13.51005437,"ECCENTRICITY":0.00179797,"INCLINATION":88.9665,"RA_OF_ASC_NODE":94.1692,"ARG_OF_PERICENTER":99.5751,"MEAN_ANOMALY":260.7433,"EPHEMERIS_TYPE":0,"CLASSIFICATION_TYPE":"U","NORAD_CAT_ID":62799,"ELEMENT_SET_NO":999,"REV_AT_EPOCH":5873,"BSTAR":3.2034655e-5,"MEAN_MOTION_DOT":3.3e-7,"MEAN_MOTION_DDOT":0},{"OBJECT_NAME":"QIANFAN-70","OBJECT_ID":"2025-016R","EPOCH":"2026-03-07T14:11:28.879008","MEAN_MOTION":13.50997276,"ECCENTRICITY":0.00175599,"INCLINATION":88.9686,"RA_OF_ASC_NODE":94.3239,"ARG_OF_PERICENTER":91.078,"MEAN_ANOMALY":269.2383,"EPHEMERIS_TYPE":0,"CLASSIFICATION_TYPE":"U","NORAD_CAT_ID":62800,"ELEMENT_SET_NO":999,"REV_AT_EPOCH":5869,"BSTAR":5.5936796e-5,"MEAN_MOTION_DOT":4.8e-7,"MEAN_MOTION_DDOT":0},{"OBJECT_NAME":"QIANFAN-71","OBJECT_ID":"2025-016S","EPOCH":"2026-03-07T14:05:28.699872","MEAN_MOTION":13.50996715,"ECCENTRICITY":0.00178756,"INCLINATION":88.968,"RA_OF_ASC_NODE":94.2986,"ARG_OF_PERICENTER":102.6564,"MEAN_ANOMALY":257.6587,"EPHEMERIS_TYPE":0,"CLASSIFICATION_TYPE":"U","NORAD_CAT_ID":62801,"ELEMENT_SET_NO":999,"REV_AT_EPOCH":5869,"BSTAR":4.6912396e-5,"MEAN_MOTION_DOT":4.3e-7,"MEAN_MOTION_DDOT":0},{"OBJECT_NAME":"QIANFAN-72","OBJECT_ID":"2025-016T","EPOCH":"2026-03-07T14:29:11.662080","MEAN_MOTION":13.50996334,"ECCENTRICITY":0.00210983,"INCLINATION":88.967,"RA_OF_ASC_NODE":94.302,"ARG_OF_PERICENTER":109.2136,"MEAN_ANOMALY":251.13,"EPHEMERIS_TYPE":0,"CLASSIFICATION_TYPE":"U","NORAD_CAT_ID":62802,"ELEMENT_SET_NO":999,"REV_AT_EPOCH":5868,"BSTAR":1.7755824e-5,"MEAN_MOTION_DOT":2.4e-7,"MEAN_MOTION_DDOT":0},{"OBJECT_NAME":"QIANFAN-73","OBJECT_ID":"2025-046A","EPOCH":"2026-03-07T15:07:51.673152","MEAN_MOTION":13.50998956,"ECCENTRICITY":0.00132033,"INCLINATION":88.9755,"RA_OF_ASC_NODE":311.2554,"ARG_OF_PERICENTER":236.3497,"MEAN_ANOMALY":123.6395,"EPHEMERIS_TYPE":0,"CLASSIFICATION_TYPE":"U","NORAD_CAT_ID":63159,"ELEMENT_SET_NO":999,"REV_AT_EPOCH":5887,"BSTAR":0.00023597946,"MEAN_MOTION_DOT":1.64e-6,"MEAN_MOTION_DDOT":0},{"OBJECT_NAME":"QIANFAN-74","OBJECT_ID":"2025-046B","EPOCH":"2026-03-07T14:44:14.580096","MEAN_MOTION":13.50998946,"ECCENTRICITY":0.00019206,"INCLINATION":88.9755,"RA_OF_ASC_NODE":311.146,"ARG_OF_PERICENTER":78.8875,"MEAN_ANOMALY":281.2492,"EPHEMERIS_TYPE":0,"CLASSIFICATION_TYPE":"U","NORAD_CAT_ID":63160,"ELEMENT_SET_NO":999,"REV_AT_EPOCH":5893,"BSTAR":0.00026917226,"MEAN_MOTION_DOT":1.86e-6,"MEAN_MOTION_DDOT":0},{"OBJECT_NAME":"QIANFAN-75","OBJECT_ID":"2025-046C","EPOCH":"2026-03-07T14:25:44.771232","MEAN_MOTION":13.50972693,"ECCENTRICITY":0.00143247,"INCLINATION":88.9758,"RA_OF_ASC_NODE":311.3822,"ARG_OF_PERICENTER":240.2248,"MEAN_ANOMALY":119.7479,"EPHEMERIS_TYPE":0,"CLASSIFICATION_TYPE":"U","NORAD_CAT_ID":63161,"ELEMENT_SET_NO":999,"REV_AT_EPOCH":5880,"BSTAR":8.9864678e-5,"MEAN_MOTION_DOT":7.0e-7,"MEAN_MOTION_DDOT":0},{"OBJECT_NAME":"QIANFAN-76","OBJECT_ID":"2025-046D","EPOCH":"2026-03-07T05:27:09.514080","MEAN_MOTION":13.5100672,"ECCENTRICITY":0.0011919,"INCLINATION":88.9756,"RA_OF_ASC_NODE":311.4009,"ARG_OF_PERICENTER":241.8085,"MEAN_ANOMALY":118.1863,"EPHEMERIS_TYPE":0,"CLASSIFICATION_TYPE":"U","NORAD_CAT_ID":63162,"ELEMENT_SET_NO":999,"REV_AT_EPOCH":5876,"BSTAR":0.00022404,"MEAN_MOTION_DOT":1.57e-6,"MEAN_MOTION_DDOT":0},{"OBJECT_NAME":"QIANFAN-77","OBJECT_ID":"2025-046E","EPOCH":"2026-03-07T14:46:35.710176","MEAN_MOTION":13.96176133,"ECCENTRICITY":0.00147075,"INCLINATION":88.9752,"RA_OF_ASC_NODE":308.67,"ARG_OF_PERICENTER":168.0648,"MEAN_ANOMALY":192.088,"EPHEMERIS_TYPE":0,"CLASSIFICATION_TYPE":"U","NORAD_CAT_ID":63163,"ELEMENT_SET_NO":999,"REV_AT_EPOCH":6029,"BSTAR":0.00027282398,"MEAN_MOTION_DOT":3.89e-6,"MEAN_MOTION_DDOT":0},{"OBJECT_NAME":"QIANFAN-78","OBJECT_ID":"2025-046F","EPOCH":"2026-03-07T15:19:42.963744","MEAN_MOTION":13.50999311,"ECCENTRICITY":0.00132278,"INCLINATION":88.9755,"RA_OF_ASC_NODE":311.2214,"ARG_OF_PERICENTER":243.4292,"MEAN_ANOMALY":116.5504,"EPHEMERIS_TYPE":0,"CLASSIFICATION_TYPE":"U","NORAD_CAT_ID":63164,"ELEMENT_SET_NO":999,"REV_AT_EPOCH":5889,"BSTAR":0.00026433349,"MEAN_MOTION_DOT":1.83e-6,"MEAN_MOTION_DDOT":0},{"OBJECT_NAME":"QIANFAN-79","OBJECT_ID":"2025-046G","EPOCH":"2026-03-07T16:01:22.285920","MEAN_MOTION":13.51009458,"ECCENTRICITY":0.00130968,"INCLINATION":88.9759,"RA_OF_ASC_NODE":311.3294,"ARG_OF_PERICENTER":241.4468,"MEAN_ANOMALY":118.5365,"EPHEMERIS_TYPE":0,"CLASSIFICATION_TYPE":"U","NORAD_CAT_ID":63165,"ELEMENT_SET_NO":999,"REV_AT_EPOCH":5884,"BSTAR":0.0002739268,"MEAN_MOTION_DOT":1.89e-6,"MEAN_MOTION_DDOT":0},{"OBJECT_NAME":"QIANFAN-80","OBJECT_ID":"2025-046H","EPOCH":"2026-03-07T14:38:12.653088","MEAN_MOTION":13.50998915,"ECCENTRICITY":0.00118958,"INCLINATION":88.9756,"RA_OF_ASC_NODE":311.0398,"ARG_OF_PERICENTER":246.2612,"MEAN_ANOMALY":113.7292,"EPHEMERIS_TYPE":0,"CLASSIFICATION_TYPE":"U","NORAD_CAT_ID":63166,"ELEMENT_SET_NO":999,"REV_AT_EPOCH":5899,"BSTAR":0.00024345109,"MEAN_MOTION_DOT":1.69e-6,"MEAN_MOTION_DDOT":0},{"OBJECT_NAME":"QIANFAN-81","OBJECT_ID":"2025-046J","EPOCH":"2026-03-07T15:53:26.095776","MEAN_MOTION":13.50984704,"ECCENTRICITY":0.00130424,"INCLINATION":88.9756,"RA_OF_ASC_NODE":311.1023,"ARG_OF_PERICENTER":233.8733,"MEAN_ANOMALY":126.1211,"EPHEMERIS_TYPE":0,"CLASSIFICATION_TYPE":"U","NORAD_CAT_ID":63167,"ELEMENT_SET_NO":999,"REV_AT_EPOCH":5895,"BSTAR":0.00020827553,"MEAN_MOTION_DOT":1.46e-6,"MEAN_MOTION_DDOT":0},{"OBJECT_NAME":"QIANFAN-82","OBJECT_ID":"2025-046K","EPOCH":"2026-03-07T14:56:02.675616","MEAN_MOTION":13.51000278,"ECCENTRICITY":0.00110509,"INCLINATION":88.9756,"RA_OF_ASC_NODE":311.1504,"ARG_OF_PERICENTER":241.689,"MEAN_ANOMALY":118.3147,"EPHEMERIS_TYPE":0,"CLASSIFICATION_TYPE":"U","NORAD_CAT_ID":63168,"ELEMENT_SET_NO":999,"REV_AT_EPOCH":5893,"BSTAR":0.00024886001,"MEAN_MOTION_DOT":1.73e-6,"MEAN_MOTION_DDOT":0},{"OBJECT_NAME":"QIANFAN-83","OBJECT_ID":"2025-046L","EPOCH":"2026-03-07T15:00:16.504128","MEAN_MOTION":13.62022559,"ECCENTRICITY":0.00126094,"INCLINATION":88.9756,"RA_OF_ASC_NODE":310.7597,"ARG_OF_PERICENTER":219.6169,"MEAN_ANOMALY":140.4068,"EPHEMERIS_TYPE":0,"CLASSIFICATION_TYPE":"U","NORAD_CAT_ID":63169,"ELEMENT_SET_NO":999,"REV_AT_EPOCH":5915,"BSTAR":0.00036266945,"MEAN_MOTION_DOT":2.92e-6,"MEAN_MOTION_DDOT":0},{"OBJECT_NAME":"QIANFAN-84","OBJECT_ID":"2025-046M","EPOCH":"2026-03-07T15:36:11.878272","MEAN_MOTION":13.5096267,"ECCENTRICITY":0.00139997,"INCLINATION":88.9756,"RA_OF_ASC_NODE":311.28,"ARG_OF_PERICENTER":238.1376,"MEAN_ANOMALY":121.8413,"EPHEMERIS_TYPE":0,"CLASSIFICATION_TYPE":"U","NORAD_CAT_ID":63170,"ELEMENT_SET_NO":999,"REV_AT_EPOCH":5886,"BSTAR":0.00029535024,"MEAN_MOTION_DOT":2.03e-6,"MEAN_MOTION_DDOT":0},{"OBJECT_NAME":"QIANFAN-85","OBJECT_ID":"2025-046N","EPOCH":"2026-03-07T15:31:33.644352","MEAN_MOTION":13.51003055,"ECCENTRICITY":0.00114701,"INCLINATION":88.9755,"RA_OF_ASC_NODE":311.1517,"ARG_OF_PERICENTER":240.4121,"MEAN_ANOMALY":119.5887,"EPHEMERIS_TYPE":0,"CLASSIFICATION_TYPE":"U","NORAD_CAT_ID":63171,"ELEMENT_SET_NO":999,"REV_AT_EPOCH":5893,"BSTAR":0.00025298213,"MEAN_MOTION_DOT":1.75e-6,"MEAN_MOTION_DDOT":0}]
