QIANFAN-69              
1 62799U 25016Q   26066.57487758  .00000033  00000+0  32035-4 0  9990
2 62799  88.9665  94.1692 0017979  99.5751 260.7433 13.51005437 58734
QIANFAN-70              
1 62800U 25016R   26066.59130647  .00000048  00000+0  55937-4 0  9999
2 62800  88.9686  94.3239 0017559  91.0780 269.2383 13.50997276 58695
QIANFAN-71              
1 62801U 25016S   26066.58713773  .00000043  00000+0  46912-4 0  9994
2 62801  88.9680  94.2986 0017875 102.6564 257.6587 13.50996715 58692
QIANFAN-72              
1 62802U 25016T   26066.60360720  .00000024  00000+0  17756-4 0  9991
2 62802  88.9670  94.3020 0021098 109.2136 251.1300 13.50996334 58680
QIANFAN-73              
1 63159U 25046A   26066.63045918  .00000164  00000+0  23598-3 0  9997
2 63159  88.9755 311.2554 0013203 236.3497 123.6395 13.50998956 58874
QIANFAN-74              
1 63160U 25046B   26066.61405764  .00000186  00000+0  26917-3 0  9998
2 63160  88.9755 311.1460 0001920  78.8875 281.2492 13.50998946 58938
QIANFAN-75              
1 63161U 25046C   26066.60121263  .00000070  00000+0  89865-4 0  9991
2 63161  88.9758 311.3822 0014324 240.2248 119.7479 13.50972693 58804
QIANFAN-76              
1 63162U 25046D   26066.22719345  .00000157  00000+0  22404-3 0  9995
2 63162  88.9756 311.4009 0011919 241.8085 118.1863 13.51006720 58769
QIANFAN-77              
1 63163U 25046E   26066.61569109  .00000389  00000+0  27282-3 0  9996
2 63163  88.9752 308.6700 0014707 168.0648 192.0880 13.96176133 60291
QIANFAN-78              
1 63164U 25046F   26066.63869171  .00000183  00000+0  26433-3 0  9990
2 63164  88.9755 311.2214 0013227 243.4292 116.5504 13.50999311 58892
QIANFAN-79              
1 63165U 25046G   26066.66761905  .00000189  00000+0  27393-3 0  9992
2 63165  88.9759 311.3294 0013096 241.4468 118.5365 13.51009458 58840
QIANFAN-80              
1 63166U 25046H   26066.60986867  .00000169  00000+0  24345-3 0  9995
2 63166  88.9756 311.0398 0011895 246.2612 113.7292 13.50998915 58995
QIANFAN-81              
1 63167U 25046J   26066.66210759  .00000146  00000+0  20828-3 0  9999
2 63167  88.9756 311.1023 0013042 233.8733 126.1211 13.50984704 58950
QIANFAN-82              
1 63168U 25046K   26066.62225319  .00000173  00000+0  24886-3 0  9992
2 63168  88.9756 311.1504 0011050 241.6890 118.3147 13.51000278 58938
QIANFAN-83              
1 63169U 25046L   26066.62519102  .00000292  00000+0  36267-3 0  9997
2 63169  88.9756 310.7597 0012609 219.6169 140.4068 13.62022559 59152
QIANFAN-84              
1 63170U 25046M   26066.65013748  .00000203  00000+0  29535-3 0  9999
2 63170  88.9756 311.2800 0013999 238.1376 121.8413 13.50962670 58864
QIANFAN-85              
1 63171U 25046N   26066.64691718  .00000175  00000+0  25298-3 0  9998
2 63171  88.9755 311.1517 0011470 240.4121 119.5887 13.51003055 58935
